STARLINK-1494           
1 45760U 20038AG  26068.49716211  .00096828  00000+0  67102-3 0  9999
2 45760  53.0480 152.5788 0005412   2.9213 357.1836 15.73709706317367
STARLINK-36583          
1 67545U 26014P   26068.64717074  .00133843  00000+0  88417-3 0  9990
2 67545  97.2837 313.5294 0001799  31.4335 328.7037 15.75190661  8567
