[{"OBJECT_NAME":"STARLINK-1494","OBJECT_ID":"2020-038AG","EPOCH":"2026-03-09T11:55:54.806304","MEAN_MOTION":15.73709706,"ECCENTRICITY":0.00054124,"INCLINATION":53.048,"RA_OF_ASC_NODE":152.5788,"ARG_OF_PERICENTER":2.9213,"MEAN_ANOMALY":357.1836,"EPHEMERIS_TYPE":0,"CLASSIFICATION_TYPE":"U","NORAD_CAT_ID":45760,"ELEMENT_SET_NO":999,"REV_AT_EPOCH":31736,"BSTAR":0.00067102324,"MEAN_MOTION_DOT":0.00096828,"MEAN_MOTION_DDOT":0},{"OBJECT_NAME":"STARLINK-36583","OBJECT_ID":"2026-014P","EPOCH":"2026-03-09T15:31:55.551936","MEAN_MOTION":15.75190661,"ECCENTRICITY":0.0001799,"INCLINATION":97.2837,"RA_OF_ASC_NODE":313.5294,"ARG_OF_PERICENTER":31.4335,"MEAN_ANOMALY":328.7037,"EPHEMERIS_TYPE":0,"CLASSIFICATION_TYPE":"U","NORAD_CAT_ID":67545,"ELEMENT_SET_NO":999,"REV_AT_EPOCH":856,"BSTAR":0.00088417,"MEAN_MOTION_DOT":0.00133843,"MEAN_MOTION_DDOT":0}]
